start=new Date('2021-09-13T00:00:00.000Z').valueOf();
sats=[{"TLE_LINE1":"1 45401U 20019AT  21255.52811269  .00002578  00000-0  19188-3 0  9997","MEAN_ELEMENT_THEORY":"SGP4","RCS_SIZE":"LARGE","FILE":"3114195","PERIOD":"95.592","SITE":"AFETR","REV_AT_EPOCH":"8289","OBJECT_NAME":"STARLINK-1256","DECAY_DATE":null,"EPHEMERIS_TYPE":"0","PERIAPSIS":"546.732","INCLINATION":"53.0534","OBJECT_ID":"2020-019AT","MEAN_MOTION_DDOT":"0.0000000000000","MEAN_ANOMALY":"262.0881","LAUNCH_DATE":"2020-03-18","ARG_OF_PERICENTER":"98.0185","REF_FRAME":"TEME","ELEMENT_SET_NO":"999","CLASSIFICATION_TYPE":"U","TIME_SYSTEM":"UTC","TLE_LINE2":"2 45401  53.0534 295.1085 0000675  98.0185 262.0881 15.06404548 82896","BSTAR":"0.00019188000000","MEAN_MOTION":"15.06404548","MEAN_MOTION_DOT":"0.00002578","COUNTRY_CODE":"US","CENTER_NAME":"EARTH","NORAD_CAT_ID":"45401","SEMIMAJOR_AXIS":"6925.335","APOAPSIS":"547.667","GP_ID":"184597810","ECCENTRICITY":"0.00006750","RA_OF_ASC_NODE":"295.1085","OBJECT_TYPE":"PAYLOAD","EPOCH":"2021-09-12T12:40:28.936416"},{"SEMIMAJOR_AXIS":"6925.345","NORAD_CAT_ID":"45402","CENTER_NAME":"EARTH","APOAPSIS":"547.808","GP_ID":"184598060","RA_OF_ASC_NODE":"295.1194","OBJECT_TYPE":"PAYLOAD","EPOCH":"2021-09-12T12:35:10.727808","ECCENTRICITY":"0.00008630","ELEMENT_SET_NO":"999","REF_FRAME":"TEME","CLASSIFICATION_TYPE":"U","TIME_SYSTEM":"UTC","TLE_LINE2":"2 45402  53.0542 295.1194 0000863  98.6067 261.5020 15.06401102 82905","MEAN_MOTION":"15.06401102","BSTAR":"0.00011579000000","COUNTRY_CODE":"US","MEAN_MOTION_DOT":"0.00001444","PERIAPSIS":"546.613","EPHEMERIS_TYPE":"0","DECAY_DATE":null,"INCLINATION":"53.0542","MEAN_MOTION_DDOT":"0.0000000000000","OBJECT_ID":"2020-019AU","MEAN_ANOMALY":"261.5020","ARG_OF_PERICENTER":"98.6067","LAUNCH_DATE":"2020-03-18","RCS_SIZE":"LARGE","MEAN_ELEMENT_THEORY":"SGP4","TLE_LINE1":"1 45402U 20019AU  21255.52442972  .00001444  00000-0  11579-3 0  9996","FILE":"3114195","PERIOD":"95.592","SITE":"AFETR","OBJECT_NAME":"STARLINK-1257","REV_AT_EPOCH":"8290"},{"NORAD_CAT_ID":"45403","SEMIMAJOR_AXIS":"6925.364","CENTER_NAME":"EARTH","APOAPSIS":"547.733","GP_ID":"184598311","OBJECT_TYPE":"PAYLOAD","RA_OF_ASC_NODE":"294.7613","EPOCH":"2021-09-12T14:31:56.864928","ECCENTRICITY":"0.00007290","ELEMENT_SET_NO":"999","REF_FRAME":"TEME","CLASSIFICATION_TYPE":"U","TLE_LINE2":"2 45403  53.0547 294.7613 0000729 100.4959 259.6112 15.06395117 82903","TIME_SYSTEM":"UTC","MEAN_MOTION":"15.06395117","BSTAR":"0.00008933200000","COUNTRY_CODE":"US","MEAN_MOTION_DOT":"0.00001049","PERIAPSIS":"546.724","EPHEMERIS_TYPE":"0","DECAY_DATE":null,"INCLINATION":"53.0547","MEAN_MOTION_DDOT":"0.0000000000000","OBJECT_ID":"2020-019AV","MEAN_ANOMALY":"259.6112","ARG_OF_PERICENTER":"100.4959","LAUNCH_DATE":"2020-03-18","RCS_SIZE":"LARGE","MEAN_ELEMENT_THEORY":"SGP4","TLE_LINE1":"1 45403U 20019AV  21255.60551927  .00001049  00000-0  89332-4 0  9991","FILE":"3114195","PERIOD":"95.592","SITE":"AFETR","OBJECT_NAME":"STARLINK-1259","REV_AT_EPOCH":"8290"},{"INCLINATION":"53.0533","PERIAPSIS":"546.708","EPHEMERIS_TYPE":"0","DECAY_DATE":null,"LAUNCH_DATE":"2020-03-18","ARG_OF_PERICENTER":"92.1249","MEAN_ANOMALY":"267.9828","MEAN_MOTION_DDOT":"0.0000000000000","OBJECT_ID":"2020-019AW","FILE":"3114195","RCS_SIZE":"LARGE","TLE_LINE1":"1 45404U 20019AW  21255.55024084 -.00001102  00000-0 -55111-4 0  9995","MEAN_ELEMENT_THEORY":"SGP4","OBJECT_NAME":"STARLINK-1260","REV_AT_EPOCH":"8280","SITE":"AFETR","PERIOD":"95.593","APOAPSIS":"547.781","SEMIMAJOR_AXIS":"6925.379","NORAD_CAT_ID":"45404","CENTER_NAME":"EARTH","EPOCH":"2021-09-12T13:12:20.808576","RA_OF_ASC_NODE":"295.0106","OBJECT_TYPE":"PAYLOAD","ECCENTRICITY":"0.00007750","GP_ID":"184599049","TLE_LINE2":"2 45404  53.0533 295.0106 0000775  92.1249 267.9828 15.06389970 82805","TIME_SYSTEM":"UTC","CLASSIFICATION_TYPE":"U","ELEMENT_SET_NO":"999","REF_FRAME":"TEME","MEAN_MOTION_DOT":"-0.00001102","COUNTRY_CODE":"US","MEAN_MOTION":"15.06389970","BSTAR":"-0.00005511100000"},{"MEAN_MOTION_DOT":"0.00001454","COUNTRY_CODE":"US","BSTAR":"0.00011649000000","MEAN_MOTION":"15.06400806","CLASSIFICATION_TYPE":"U","TIME_SYSTEM":"UTC","TLE_LINE2":"2 45405  53.0551 294.7807 0000682  97.8538 262.2528 15.06400806 82818","REF_FRAME":"TEME","ELEMENT_SET_NO":"999","ECCENTRICITY":"0.00006820","OBJECT_TYPE":"PAYLOAD","RA_OF_ASC_NODE":"294.7807","EPOCH":"2021-09-12T14:26:38.118912","GP_ID":"184597310","APOAPSIS":"547.683","CENTER_NAME":"EARTH","SEMIMAJOR_AXIS":"6925.346","NORAD_CAT_ID":"45405","REV_AT_EPOCH":"8281","OBJECT_NAME":"STARLINK-1263","PERIOD":"95.592","SITE":"AFETR","FILE":"3114195","TLE_LINE1":"1 45405U 20019AX  21255.60183008  .00001454  00000-0  11649-3 0  9999","MEAN_ELEMENT_THEORY":"SGP4","RCS_SIZE":"LARGE","MEAN_ANOMALY":"262.2528","ARG_OF_PERICENTER":"97.8538","LAUNCH_DATE":"2020-03-18","OBJECT_ID":"2020-019AX","MEAN_MOTION_DDOT":"0.0000000000000","INCLINATION":"53.0551","DECAY_DATE":null,"EPHEMERIS_TYPE":"0","PERIAPSIS":"546.739"},{"MEAN_MOTION_DDOT":"0.0000000000000","OBJECT_ID":"2020-019AY","LAUNCH_DATE":"2020-03-18","ARG_OF_PERICENTER":"99.5818","MEAN_ANOMALY":"260.5242","PERIAPSIS":"546.780","EPHEMERIS_TYPE":"0","DECAY_DATE":null,"INCLINATION":"53.0539","PERIOD":"95.592","SITE":"AFETR","OBJECT_NAME":"STARLINK-1265","REV_AT_EPOCH":"8281","RCS_SIZE":"LARGE","MEAN_ELEMENT_THEORY":"SGP4","TLE_LINE1":"1 45406U 20019AY  21255.60920869 -.00000036  00000-0  16472-4 0  9990","FILE":"3114195","GP_ID":"184597560","EPOCH":"2021-09-12T14:37:15.630816","OBJECT_TYPE":"PAYLOAD","RA_OF_ASC_NODE":"294.7372","ECCENTRICITY":"0.00006300","NORAD_CAT_ID":"45406","SEMIMAJOR_AXIS":"6925.351","CENTER_NAME":"EARTH","APOAPSIS":"547.652","MEAN_MOTION":"15.06399254","BSTAR":"0.00001647200000","COUNTRY_CODE":"US","MEAN_MOTION_DOT":"-0.00000036","ELEMENT_SET_NO":"999","REF_FRAME":"TEME","TLE_LINE2":"2 45406  53.0539 294.7372 0000630  99.5818 260.5242 15.06399254 82813","TIME_SYSTEM":"UTC","CLASSIFICATION_TYPE":"U"},{"RCS_SIZE":"LARGE","TLE_LINE1":"1 45407U 20019AZ  21255.62395467 -.00000316  00000-0 -23387-5 0  9999","MEAN_ELEMENT_THEORY":"SGP4","FILE":"3114195","SITE":"AFETR","PERIOD":"95.592","OBJECT_NAME":"STARLINK-1275","REV_AT_EPOCH":"8281","EPHEMERIS_TYPE":"0","PERIAPSIS":"546.869","DECAY_DATE":null,"INCLINATION":"53.0547","MEAN_MOTION_DDOT":"0.0000000000000","OBJECT_ID":"2020-019AZ","MEAN_ANOMALY":"245.8654","LAUNCH_DATE":"2020-03-18","ARG_OF_PERICENTER":"114.2387","ELEMENT_SET_NO":"999","REF_FRAME":"TEME","CLASSIFICATION_TYPE":"U","TIME_SYSTEM":"UTC","TLE_LINE2":"2 45407  53.0547 294.6738 0000498 114.2387 245.8654 15.06400035 82819","MEAN_MOTION":"15.06400035","BSTAR":"-0.00000233870000","MEAN_MOTION_DOT":"-0.00000316","COUNTRY_CODE":"US","SEMIMAJOR_AXIS":"6925.348","NORAD_CAT_ID":"45407","CENTER_NAME":"EARTH","APOAPSIS":"547.558","GP_ID":"184598812","RA_OF_ASC_NODE":"294.6738","OBJECT_TYPE":"PAYLOAD","EPOCH":"2021-09-12T14:58:29.683488","ECCENTRICITY":"0.00004980"},{"FILE":"3114195","TLE_LINE1":"1 45408U 20019BA  21255.70228142 -.00000206  00000-0  50656-5 0  9990","MEAN_ELEMENT_THEORY":"SGP4","RCS_SIZE":"LARGE","REV_AT_EPOCH":"8241","OBJECT_NAME":"STARLINK-1278","PERIOD":"95.592","SITE":"AFETR","INCLINATION":"53.0544","DECAY_DATE":null,"PERIAPSIS":"546.546","EPHEMERIS_TYPE":"0","MEAN_ANOMALY":"247.4682","ARG_OF_PERICENTER":"112.6412","LAUNCH_DATE":"2020-03-18","OBJECT_ID":"2020-019BA","MEAN_MOTION_DDOT":"0.0000000000000","CLASSIFICATION_TYPE":"U","TLE_LINE2":"2 45408  53.0544 324.3300 0000985 112.6412 247.4682 15.06395312 82411","TIME_SYSTEM":"UTC","REF_FRAME":"TEME","ELEMENT_SET_NO":"999","MEAN_MOTION_DOT":"-0.00000206","COUNTRY_CODE":"US","BSTAR":"0.00000506560000","MEAN_MOTION":"15.06395312","APOAPSIS":"547.910","CENTER_NAME":"EARTH","NORAD_CAT_ID":"45408","SEMIMAJOR_AXIS":"6925.363","ECCENTRICITY":"0.00009850","RA_OF_ASC_NODE":"324.3300","OBJECT_TYPE":"PAYLOAD","EPOCH":"2021-09-12T16:51:17.114688","GP_ID":"184598549"},{"APOAPSIS":"547.856","SEMIMAJOR_AXIS":"6925.357","NORAD_CAT_ID":"45409","CENTER_NAME":"EARTH","EPOCH":"2021-09-12T13:33:33.935040","RA_OF_ASC_NODE":"294.9429","OBJECT_TYPE":"PAYLOAD","ECCENTRICITY":"0.00009160","GP_ID":"184597811","TLE_LINE2":"2 45409  53.0551 294.9429 0000916 105.3573 254.7518 15.06397221 82819","TIME_SYSTEM":"UTC","CLASSIFICATION_TYPE":"U","ELEMENT_SET_NO":"999","REF_FRAME":"TEME","MEAN_MOTION_DOT":"0.00000980","COUNTRY_CODE":"US","MEAN_MOTION":"15.06397221","BSTAR":"0.00008469100000","INCLINATION":"53.0551","EPHEMERIS_TYPE":"0","PERIAPSIS":"546.588","DECAY_DATE":null,"ARG_OF_PERICENTER":"105.3573","LAUNCH_DATE":"2020-03-18","MEAN_ANOMALY":"254.7518","MEAN_MOTION_DDOT":"0.0000000000000","OBJECT_ID":"2020-019BB","FILE":"3114195","RCS_SIZE":"LARGE","TLE_LINE1":"1 45409U 20019BB  21255.56497610  .00000980  00000-0  84691-4 0  9996","MEAN_ELEMENT_THEORY":"SGP4","OBJECT_NAME":"STARLINK-1282","REV_AT_EPOCH":"8281","PERIOD":"95.592","SITE":"AFETR"},{"GP_ID":"184571351","RA_OF_ASC_NODE":"263.2509","OBJECT_TYPE":"PAYLOAD","EPOCH":"2021-09-12T09:08:17.514528","ECCENTRICITY":"0.00021720","SEMIMAJOR_AXIS":"6732.773","NORAD_CAT_ID":"45410","CENTER_NAME":"EARTH","APOAPSIS":"356.100","MEAN_MOTION":"15.71490756","BSTAR":"0.00010364000000","COUNTRY_CODE":"US","MEAN_MOTION_DOT":"0.00012944","ELEMENT_SET_NO":"999","REF_FRAME":"TEME","CLASSIFICATION_TYPE":"U","TIME_SYSTEM":"UTC","TLE_LINE2":"2 45410  53.0564 263.2509 0002172  18.9040 341.2057 15.71490756 83222","MEAN_MOTION_DDOT":"0.0000000000000","OBJECT_ID":"2020-019BC","MEAN_ANOMALY":"341.2057","ARG_OF_PERICENTER":"18.9040","LAUNCH_DATE":"2020-03-18","PERIAPSIS":"353.175","EPHEMERIS_TYPE":"0","DECAY_DATE":null,"INCLINATION":"53.0564","PERIOD":"91.633","SITE":"AFETR","OBJECT_NAME":"STARLINK-1285","REV_AT_EPOCH":"8322","RCS_SIZE":"LARGE","TLE_LINE1":"1 45410U 20019BC  21255.38075827  .00012944  00000-0  10364-3 0  9998","MEAN_ELEMENT_THEORY":"SGP4","FILE":"3114003"}];
